NORAD_CAT_ID,OBJECT_NAME,OBJECT_TYPE,EPOCH,MEAN_MOTION,ECCENTRICITY,INCLINATION,RA_OF_ASC_NODE,ARG_OF_PERICENTER,MEAN_ANOMALY,BSTAR,MEAN_MOTION_DOT,MEAN_MOTION_DDOT,TLE_LINE0,TLE_LINE1,TLE_LINE2,SEMIMAJOR_AXIS,PERIOD,APOGEE,PERIGEE,DECAYED
53905.0,STARLINK-5003,PAYLOAD,2023-02-11 01:34:23,15.08857891,8.76e-05,53.2165,313.9926,66.4375,293.6709,0.0019241,0.00030482,0.0,0 STARLINK-5003,1 53905U 22119V   23042.06555158  .00030482  00000-0  19241-2 0  9999,2 53905  53.2165 313.9926 0000876  66.4375 293.6709 15.08857891 21923,6917.826,95.436,540.297,539.085,0.0
53905.0,STARLINK-5003,PAYLOAD,2023-02-11 17:28:15,15.08842682,0.0001139,53.2158,311.0198,62.411,297.6998,0.0010453,0.00016388,0.0,0 STARLINK-5003,1 53905U 22119V   23042.72795770  .00016388  00000-0  10453-2 0  9993,2 53905  53.2158 311.0198 0001139  62.4110 297.6998 15.08842682 22029,6917.872,95.437,540.525,538.949,0.0
53905.0,STARLINK-5003,PAYLOAD,2023-02-12 10:57:30,15.08835729,8.97e-05,53.2158,307.7481,71.7437,288.3653,0.00030834,4.622e-05,0.0,0 STARLINK-5003,1 53905U 22119V   23043.45659909  .00004622  00000-0  30834-3 0  9991,2 53905  53.2158 307.7481 0000897  71.7437 288.3653 15.08835729 22132,6917.893,95.438,540.379,539.138,0.0
53905.0,STARLINK-5003,PAYLOAD,2023-02-13 10:48:18,15.08829591,0.0001375,53.2162,303.2856,82.1859,277.929,0.00035309,5.334e-05,0.0,0 STARLINK-5003,1 53905U 22119V   23044.45020988  .00005334  00000-0  35309-3 0  9994,2 53905  53.2162 303.2856 0001375  82.1859 277.9290 15.08829591 22287,6917.912,95.438,540.728,538.826,0.0
53905.0,STARLINK-5003,PAYLOAD,2023-02-14 02:42:09,15.08845156,0.0001479,53.2174,300.3121,75.654,284.4616,0.00066885,0.00010374,0.0,0 STARLINK-5003,1 53905U 22119V   23045.11261069  .00010374  00000-0  66885-3 0  9998,2 53905  53.2174 300.3121 0001479  75.6540 284.4616 15.08845156 22383,6917.865,95.437,540.753,538.706,0.0
53905.0,STARLINK-5003,PAYLOAD,2023-02-14 21:46:47,15.08842838,0.0001588,53.2157,296.7435,72.3352,287.7814,0.00029452,4.403e-05,0.0,0 STARLINK-5003,1 53905U 22119V   23045.90749211  .00004403  00000-0  29452-3 0  9990,2 53905  53.2157 296.7435 0001588  72.3352 287.7814 15.08842838 22926,6917.872,95.437,540.835,538.638,0.0
53905.0,STARLINK-5003,PAYLOAD,2023-02-14 23:22:10,15.0884162,0.0001635,53.2168,296.4463,73.3952,286.722,0.00023422,3.442e-05,0.0,0 STARLINK-5003,1 53905U 22119V   23045.97373229  .00003442  00000-0  23422-3 0  9992,2 53905  53.2168 296.4463 0001635  73.3952 286.7220 15.08841620 22519,6917.875,95.437,540.872,538.609,0.0
53905.0,STARLINK-5003,PAYLOAD,2023-02-15 21:37:33,15.08853751,0.0001453,53.2169,292.2846,79.4909,280.6247,0.00033918,5.116e-05,0.0,0 STARLINK-5003,1 53905U 22119V   23046.90108620  .00005116  00000-0  33918-3 0  9998,2 53905  53.2169 292.2846 0001453  79.4909 280.6247 15.08853751 23078,6917.838,95.437,540.709,538.698,0.0
53905.0,STARLINK-5003,PAYLOAD,2023-02-16 08:45:15,15.08850745,0.0001265,53.2168,290.2038,78.4956,281.6178,0.00026229,3.89e-05,0.0,0 STARLINK-5003,1 53905U 22119V   23047.36476503  .00003890  00000-0  26229-3 0  9991,2 53905  53.2168 290.2038 0001265  78.4956 281.6178 15.08850745 22725,6917.848,95.437,540.588,538.837,0.0
53905.0,STARLINK-5003,PAYLOAD,2023-02-16 16:42:11,15.08836987,0.0001376,53.2166,288.7172,94.6441,265.4709,-9.8335e-05,-1.852e-05,0.0,0 STARLINK-5003,1 53905U 22119V   23047.69596815 -.00001852  00000-0 -98335-4 0  9992,2 53905  53.2166 288.7172 0001376  94.6441 265.4709 15.08836987 22773,6917.89,95.438,540.707,538.803,0.0
53905.0,STARLINK-5003,PAYLOAD,2023-02-16 21:28:20,15.08843908,0.0001561,53.2183,287.8273,97.706,262.4109,7.469e-06,-1.69e-06,0.0,0 STARLINK-5003,1 53905U 22119V   23047.89468654 -.00000169  00000-0  74690-5 0  9991,2 53905  53.2183 287.8273 0001561  97.7060 262.4109 15.08843908 23224,6917.868,95.437,540.813,538.654,0.0
53905.0,STARLINK-5003,PAYLOAD,2023-02-17 02:14:30,15.08850711,0.0001112,53.2161,286.9318,92.3614,267.7505,0.00021073,3.068e-05,0.0,0 STARLINK-5003,1 53905U 22119V   23048.09340292  .00003068  00000-0  21073-3 0  9996,2 53905  53.2161 286.9318 0001112  92.3614 267.7505 15.08850711 22832,6917.848,95.437,540.482,538.943,0.0
53905.0,STARLINK-5003,PAYLOAD,2023-02-17 08:36:03,15.08833872,0.0001506,53.2151,285.742,79.8577,280.2585,-8.4463e-05,-1.632e-05,0.0,0 STARLINK-5003,1 53905U 22119V   23048.35837277 -.00001632  00000-0 -84463-4 0  9999,2 53905  53.2151 285.7420 0001506  79.8577 280.2585 15.08833872 22878,6917.899,95.438,540.806,538.722,0.0
53905.0,STARLINK-5003,PAYLOAD,2023-02-17 21:19:09,15.0882824,0.0001376,53.2166,283.3643,91.2194,268.8956,-0.00013981,-2.512e-05,0.0,0 STARLINK-5003,1 53905U 22119V   23048.88829869 -.00002512  00000-0 -13981-3 0  9999,2 53905  53.2166 283.3643 0001376  91.2194 268.8956 15.08828240 23376,6917.916,95.438,540.733,538.829,0.0
53905.0,STARLINK-5003,PAYLOAD,2023-02-18 14:48:23,15.08837009,0.0001323,53.2169,280.0933,89.8371,270.2773,0.00026042,3.859e-05,0.0,0 STARLINK-5003,1 53905U 22119V   23049.61693887  .00003859  00000-0  26042-3 0  9995,2 53905  53.2169 280.0933 0001323  89.8371 270.2773 15.08837009 23486,6917.89,95.438,540.67,538.839,0.0
53905.0,STARLINK-5003,PAYLOAD,2023-02-18 17:59:09,15.08841538,0.0001333,53.2166,279.4989,92.2195,267.8949,0.0003337,5.027e-05,0.0,0 STARLINK-5003,1 53905U 22119V   23049.74941798  .00005027  00000-0  33370-3 0  9997,2 53905  53.2166 279.4989 0001333  92.2195 267.8949 15.08841538 23084,6917.876,95.437,540.663,538.819,0.0
53905.0,STARLINK-5003,PAYLOAD,2023-02-19 14:39:10,15.08844243,0.0001653,53.2154,275.6337,80.7244,279.3935,0.00016219,2.294e-05,0.0,0 STARLINK-5003,1 53905U 22119V   23050.61053798  .00002294  00000-0  16219-3 0  9995,2 53905  53.2154 275.6337 0001653  80.7244 279.3935 15.08844243 23638,6917.867,95.437,540.876,538.589,0.0
53905.0,STARLINK-5003,PAYLOAD,2023-02-19 21:00:43,15.08843624,0.000147,53.2152,274.4436,82.6418,277.4741,0.00024518,3.617e-05,0.0,0 STARLINK-5003,1 53905U 22119V   23050.87549805  .00003617  00000-0  24518-3 0  9993,2 53905  53.2152 274.4436 0001470  82.6418 277.4741 15.08843624 23258,6917.869,95.437,540.751,538.717,0.0
53905.0,STARLINK-5003,PAYLOAD,2023-02-20 08:08:24,15.08846225,0.0001448,53.2151,272.3617,83.2627,276.853,0.00015976,2.256e-05,0.0,0 STARLINK-5003,1 53905U 22119V   23051.33917529  .00002256  00000-0  15976-3 0  9993,2 53905  53.2151 272.3617 0001448  83.2627 276.8530 15.08846225 23742,6917.861,95.437,540.728,538.725,0.0
53905.0,STARLINK-5003,PAYLOAD,2023-02-21 01:37:38,15.08857598,0.0001373,53.215,269.09,80.046,280.0687,0.00019528,2.823e-05,0.0,0 STARLINK-5003,1 53905U 22119V   23052.06780591  .00002823  00000-0  19528-3 0  9998,2 53905  53.2150 269.0900 0001373  80.0460 280.0687 15.08857598 23437,6917.827,95.436,540.641,538.742,0.0
53905.0,STARLINK-5003,PAYLOAD,2023-02-21 07:59:11,15.08850882,0.0002106,53.2168,267.902,62.7803,297.3404,0.00014848,2.076e-05,0.0,0 STARLINK-5003,1 53905U 22119V   23052.33277074  .00002076  00000-0  14848-3 0  9995,2 53905  53.2168 267.9020 0002106  62.7803 297.3404 15.08850882 23470,6917.847,95.437,541.169,538.255,0.0
53905.0,STARLINK-5003,PAYLOAD,2023-02-21 20:42:16,15.08849286,0.0001428,53.2154,265.5208,87.91,272.2056,0.00010236,1.342e-05,0.0,0 STARLINK-5003,1 53905U 22119V   23052.86268762  .00001342  00000-0  10236-3 0  9999,2 53905  53.2154 265.5208 0001428  87.9100 272.2056 15.08849286 23978,6917.852,95.437,540.705,538.729,0.0
53905.0,STARLINK-5003,PAYLOAD,2023-02-22 14:11:31,15.08836379,0.0001444,53.2153,262.25,85.9606,274.1551,-3.491e-05,-8.43e-06,0.0,0 STARLINK-5003,1 53905U 22119V   23053.59133392 -.00000843  00000-0 -34910-4 0  9993,2 53905  53.2153 262.2500 0001444  85.9606 274.1551 15.08836379 24086,6917.891,95.438,540.755,538.758,0.0
53905.0,STARLINK-5003,PAYLOAD,2023-02-22 22:08:27,15.08835967,0.0001396,53.215,260.763,80.7971,279.3179,-5.5335e-05,-1.168e-05,0.0,0 STARLINK-5003,1 53905U 22119V   23053.92253501 -.00001168  00000-0 -55335-4 0  9990,2 53905  53.2150 260.7630 0001396  80.7971 279.3179 15.08835967 24135,6917.893,95.438,540.723,538.792,0.0
53905.0,STARLINK-5003,PAYLOAD,2023-02-23 14:02:18,15.08841325,0.0001338,53.2151,257.7888,81.815,278.2994,0.00015359,2.157e-05,0.0,0 STARLINK-5003,1 53905U 22119V   23054.58493336  .00002157  00000-0  15359-3 0  9993,2 53905  53.2151 257.7888 0001338  81.8150 278.2994 15.08841325 24233,6917.876,95.437,540.667,538.816,0.0
53905.0,STARLINK-5003,PAYLOAD,2023-02-23 20:23:50,15.08848291,0.0001345,53.2148,256.5996,81.6204,278.4941,0.00023373,3.435e-05,0.0,0 STARLINK-5003,1 53905U 22119V   23054.84988966  .00003435  00000-0  23373-3 0  9995,2 53905  53.2148 256.5996 0001345  81.6204 278.4941 15.08848291 23852,6917.855,95.437,540.65,538.79,0.0
53905.0,STARLINK-5003,PAYLOAD,2023-02-24 05:56:09,15.08842722,0.000136,53.2154,254.8146,76.6413,283.4731,0.00018232,2.615e-05,0.0,0 STARLINK-5003,1 53905U 22119V   23055.24733287  .00002615  00000-0  18232-3 0  9991,2 53905  53.2154 254.8146 0001360  76.6413 283.4731 15.08842722 23913,6917.872,95.437,540.678,538.796,0.0
53905.0,STARLINK-5003,PAYLOAD,2023-02-24 13:53:05,15.08841898,0.0001392,53.2149,253.3281,76.3988,283.7159,0.000176,2.514e-05,0.0,0 STARLINK-5003,1 53905U 22119V   23055.57853353  .00002514  00000-0  17600-3 0  9990,2 53905  53.2149 253.3281 0001392  76.3988 283.7159 15.08841898 24382,6917.875,95.437,540.703,538.777,0.0
53905.0,STARLINK-5003,PAYLOAD,2023-02-24 21:50:00,15.08842308,0.0001267,53.2153,251.8414,83.1071,277.0065,9.3304e-05,1.197e-05,0.0,0 STARLINK-5003,1 53905U 22119V   23055.90973270  .00001197  00000-0  93304-4 0  9990,2 53905  53.2153 251.8414 0001267  83.1071 277.0065 15.08842308 24433,6917.873,95.437,540.615,538.862,0.0
53905.0,STARLINK-5003,PAYLOAD,2023-02-25 05:46:56,15.08838259,0.0001291,53.2156,250.3537,83.3745,276.7394,-1.4334e-05,-5.16e-06,0.0,0 STARLINK-5003,1 53905U 22119V   23056.24093324 -.00000516  00000-0 -14334-4 0  9993,2 53905  53.2156 250.3537 0001291  83.3745 276.7394 15.08838259 24063,6917.886,95.438,540.644,538.858,0.0
